OBJECT_NAME,OBJECT_ID,EPOCH,MEAN_MOTION,ECCENTRICITY,INCLINATION,RA_OF_ASC_NODE,ARG_OF_PERICENTER,MEAN_ANOMALY,EPHEMERIS_TYPE,CLASSIFICATION_TYPE,NORAD_CAT_ID,ELEMENT_SET_NO,REV_AT_EPOCH,BSTAR,MEAN_MOTION_DOT,MEAN_MOTION_DDOT
SIRION PATHFINDER-2,2018-099B,2026-05-21T16:28:00.372288,15.14273074,.0009618,97.4266,191.3758,41.6230,318.5732,0,U,43759,999,40861,.20624E-3,.3712E-4,0
CORVUS BC4,2018-099K,2026-05-21T14:10:42.612672,15.12248212,.0010105,97.4085,185.3518,94.0235,266.2151,0,U,43767,999,40838,.1839E-3,.3119E-4,0
M2 PATHFINDER,2020-037E,2026-05-21T12:16:55.782336,15.04541732,.0010057,97.8155,332.4456,238.9667,121.0571,0,U,45727,999,32148,.70978E-4,.931E-5,0
NETSAT-4,2020-068U,2026-05-20T23:00:53.047584,15.42862153,.00073029,97.8616,147.0338,69.3171,290.8858,0,U,46504,999,31157,.27705354E-3,.12073E-3,0
NETSAT-3,2020-068V,2026-05-21T00:12:45.561024,15.41639965,.00073663,97.8666,145.3392,82.1229,278.0853,0,U,46505,999,31149,.30030796E-3,.1257E-3,0
NETSAT-1,2020-068W,2026-05-21T11:03:58.188096,15.33913256,.0006977,97.8754,140.4672,100.8529,259.3498,0,U,46506,999,31120,.28707E-3,.9338E-4,0
NETSAT-2,2020-068X,2026-05-21T11:42:07.165152,15.44735783,.0006208,97.8632,147.4068,91.2398,268.9560,0,U,46507,999,31161,.34677E-3,.16128E-3,0
GREENCUBE (IO-117),2022-080E,2026-05-21T09:57:21.803616,6.42583336,.0008838,70.1430,307.5592,295.9766,63.9983,0,U,53109,999,9034,0,-.3E-7,0
SITRO-AIS 5 (KATYS),2023-091L,2026-05-21T18:19:19.119072,15.28764611,.0011579,97.5069,205.4233,187.6984,172.4079,0,U,57176,999,16030,.285E-3,.7907E-4,0
SITRO-AIS 6 (CHIRKIN),2023-091AC,2026-05-21T17:57:07.581888,15.25361874,.0011712,97.5076,204.6644,191.0378,169.0604,0,U,57192,999,16025,.24918E-3,.6223E-4,0
SITRO-AIS 8 (ANOKHIN),2023-091AD,2026-05-21T16:40:42.930912,15.31322493,.0010886,97.5064,206.8378,183.4262,176.6907,0,U,57193,999,16039,.32272E-3,.9703E-4,0
SITRO-AIS 7 (FARTUSHNIY),2023-091AE,2026-05-21T17:54:01.784736,15.25063061,.0011522,97.5074,204.5007,192.1203,167.9759,0,U,57194,999,16024,.24703E-3,.6113E-4,0
SITRO-AIS 10 (BURDAEV),2023-091AK,2026-05-21T16:55:29.218656,15.37484584,.0007784,97.5086,211.6356,157.8093,202.3490,0,U,57199,999,16069,.36613E-3,.13396E-3,0
SITRO-AIS 9 (SHCHUKIN),2023-091AM,2026-05-21T17:21:48.874176,15.37027539,.0007983,97.5084,211.4044,158.2041,201.9544,0,U,57201,999,16068,.3656E-3,.13181E-3,0
SITRO-AIS 12 (SMIRENNIY),2023-091AQ,2026-05-21T17:15:26.333856,15.37313974,.000774,97.5096,211.8505,152.9239,207.2410,0,U,57204,999,16070,.36286E-3,.13202E-3,0
SITRO-AIS 11 (SHEFFER),2023-091AU,2026-05-21T17:44:58.640640,15.37712371,.0007659,97.5095,212.1019,152.6914,207.4735,0,U,57208,999,16072,.38148E-3,.14066E-3,0
SITRO-AIS 25,2024-039R,2026-05-21T17:01:08.299776,14.93315475,.0147057,95.3915,216.8994,61.1801,300.4097,0,U,59066,999,12077,.21066E-3,.2697E-4,0
SITRO-AIS 26,2024-039S,2026-05-21T18:34:27.995232,14.93117445,.0147397,95.3916,216.8471,61.4889,300.1087,0,U,59067,999,12077,.20854E-3,.2658E-4,0
SITRO-AIS 27,2024-039T,2026-05-21T18:02:13.305696,14.93528779,.01464,95.3917,217.0912,60.2831,301.2873,0,U,59068,999,12079,.26529E-3,.3419E-4,0
SITRO-AIS 28,2024-039U,2026-05-21T17:30:36.342720,14.93562960,.0146214,95.3917,217.1220,60.1790,301.3880,0,U,59071,999,12079,.22649E-3,.2915E-4,0
GRBBETA,2024-128C,2026-05-21T17:41:31.289280,15.06392876,.0044299,61.9903,309.0505,129.2445,231.2592,0,U,60237,999,10228,.21928E-3,.3096E-4,0
OOV-CUBE (TUBSAT-30),2024-128F,2026-05-21T18:30:44.672832,15.02619623,.0047977,61.9943,317.6745,128.0183,232.5254,0,U,60240,999,10214,.13389E-3,.1619E-4,0
ROBUSTA-3A (MEDITERRANEE),2024-128J,2026-05-21T17:43:31.120032,15.11206847,.0045158,61.9870,301.7461,122.8969,237.6483,0,U,60243,999,10242,.36103E-3,.6019E-4,0
LASARSAT,2024-247Q,2026-05-20T19:53:01.858272,15.44503182,.00058604,44.9760,55.7382,176.3157,183.7776,0,U,62391,999,7908,.47395813E-3,.22182E-3,0
CROCUBE,2024-247T,2026-05-21T02:46:59.164320,15.46151390,.00055815,44.9732,51.8723,180.8555,179.2327,0,U,62394,999,7915,.48363113E-3,.23976E-3,0
FORESAIL-1 PRIME,2025-276DS,2026-05-21T10:35:38.864256,15.18421959,.000261,97.4202,215.2063,162.0335,198.0992,0,U,66778,999,2634,.16017E-3,.3229E-4,0
KNACKSAT-2,1998-067XZ,2026-05-21T00:54:37.110528,15.57383266,.0012161,51.6301,70.7726,99.9810,260.2555,0,U,67683,999,1604,.42652432E-3,.31564E-3,0
